1 39533U 14008A   18335.03409951 -.00000049  00000-0  00000+0 0  9990
2 39533  53.9999 261.9865 0036139 192.3593 167.5687  2.00565065 34983
1 39533U 14008A   18336.03124232 -.00000055  00000-0  00000+0 0  9994
2 39533  53.9993 261.9455 0036128 192.3332 167.5924  2.00565124 35005
1 39533U 14008A   18337.02838732 -.00000056  00000-0  00000+0 0  9992
2 39533  53.9988 261.9045 0036120 192.3004 167.6245  2.00565194 35017
1 39533U 14008A   18337.52696071 -.00000055  00000-0  00000-0 0  9995
2 39533  53.9985 261.8839 0036119 192.2893 167.6361  2.00565235 34493
1 39533U 14008A   18338.02553503 -.00000052  00000-0  00000+0 0  9999
2 39533  53.9982 261.8634 0036115 192.2735 167.6530  2.00565267 35038
1 39533U 14008A   18338.52410987 -.00000048  00000-0  00000-0 0  9998
2 39533  53.9979 261.8429 0036114 192.2613 167.6667  2.00565307 34518
1 39533U 14008A   18339.02268554 -.00000044  00000-0  00000+0 0  9990
2 39533  53.9977 261.8224 0036110 192.2396 167.6906  2.00565339 35065
1 39533U 14008A   18340.01983783 -.00000035  00000-0  00000+0 0  9999
2 39533  53.9971 261.7814 0036109 192.2134 167.7221  2.00565413 35087
1 39533U 14008A   18342.01414414 -.00000019  00000-0  00000+0 0  9993
2 39533  53.9960 261.6993 0036111 192.1705 167.7772  2.00565541 35126
1 39533U 14008A   18343.01129608 -.00000016  00000-0  00000+0 0  9999
2 39533  53.9954 261.6583 0036111 192.1449 167.8084  2.00565604 35148
1 39533U 14008A   18343.50987150 -.00000015  00000-0  00000-0 0  9997
2 39533  53.9952 261.6378 0036108 192.1276 167.8282  2.00565632 34614
1 39533U 14008A   18344.50702085 -.00000016  00000-0  00000+0 0  9990
2 39533  53.9946 261.5968 0036101 192.0845 167.8752  2.00565681 35173
1 39533U 14008A   18344.50702087 -.00000016  00000-0  00000-0 0  9993
2 39533  53.9946 261.5968 0036101 192.0799 167.8798  2.00565687 34637
1 39533U 14008A   18345.00559486 -.00000017  00000-0  00000+0 0  9992
2 39533  53.9943 261.5763 0036095 192.0476 167.9137  2.00565713 35180
1 39533U 14008A   18345.50416809 -.00000019  00000-0  00000+0 0  9990
2 39533  53.9940 261.5558 0036095 192.0265 167.9358  2.00565735 35195
1 39533U 14008A   18345.50416809 -.00000019  00000-0  00000-0 0  9991
2 39533  53.9940 261.5558 0036095 192.0265 167.9358  2.00565735 34655
1 39533U 14008A   18346.50131293 -.00000022  00000-0  00000+0 0  9996
2 39533  53.9935 261.5148 0036093 191.9790 167.9844  2.00565780 35216
1 39533U 14008A   18346.50131294 -.00000022  00000-0  00000-0 0  9998
2 39533  53.9935 261.5147 0036093 191.9874 167.9759  2.00565772 34673
1 39533U 14008A   18347.99702683 -.00000025  00000-0  00000+0 0  9990
2 39533  53.9926 261.4532 0036104 191.9318 168.0310  2.00565832 35242
1 39533U 14008A   18348.99416798 -.00000025  00000-0  00000+0 0  9990
2 39533  53.9921 261.4121 0036109 191.8983 168.0636  2.00565872 35260
1 39533U 14008A   18349.49273860 -.00000023  00000-0  00000+0 0  9995
2 39533  53.9918 261.3916 0036112 191.8809 168.0805  2.00565890 35277
1 39533U 14008A   18349.49273860 -.00000023  00000-0  00000-0 0  9996
2 39533  53.9918 261.3916 0036112 191.8809 168.0805  2.00565890 34737
1 39533U 14008A   18350.98845142 -.00000016  00000-0  00000+0 0  9991
2 39533  53.9910 261.3301 0036118 191.8319 168.1291  2.00565938 35306
1 39533U 14008A   18351.48702286 -.00000012  00000-0  00000-0 0  9995
2 39533  53.9907 261.3095 0036118 191.8213 168.1399  2.00565954 34772
1 39533U 14008A   18351.98559488 -.00000008  00000-0  00000+0 0  9998
2 39533  53.9904 261.2890 0036119 191.8034 168.1586  2.00565969 35329
1 39533U 14008A   18352.98274055  .00000000  00000-0  00000+0 0  9994
2 39533  53.9899 261.2479 0036117 191.7644 168.2003  2.00565996 35346
1 39533U 14008A   18354.97703678  .00000017  00000-0  00000+0 0  9991
2 39533  53.9888 261.1658 0036116 191.6874 168.2867  2.00566057 35386
1 39533U 14008A   18355.97418643  .00000022  00000-0  00000+0 0  9993
2 39533  53.9882 261.1247 0036109 191.6165 168.3635  2.00566085 35407
1 39533U 14008A   18355.97418643  .00000022  00000-0  00000-0 0  9994
2 39533  53.9882 261.1247 0036109 191.6165 168.3635  2.00566085 34866
1 39533U 14008A   18356.47276058  .00000024  00000-0  00000-0 0  9994
2 39533  53.9879 261.1042 0036108 191.6036 168.3789  2.00566099 34877
1 39533U 14008A   18356.97133407  .00000024  00000-0  00000+0 0  9998
2 39533  53.9876 261.0837 0036115 191.5877 168.3971  2.00566121 35426
1 39533U 14008A   18357.46990701  .00000023  00000-0  00000-0 0  9991
2 39533  53.9873 261.0631 0036116 191.5738 168.4128  2.00566141 34899
1 39533U 14008A   18357.96847938  .00000021  00000-0  00000+0 0  9996
2 39533  53.9870 261.0426 0036111 191.5537 168.4343  2.00566158 35449
1 39533U 14008A   18358.46705074  .00000018  00000-0  00000-0 0  9993
2 39533  53.9868 261.0220 0036115 191.5309 168.4579  2.00566184 34910
1 39533U 14008A   18358.96562111  .00000014  00000-0  00000+0 0  9996
2 39533  53.9865 261.0014 0036118 191.5175 168.4716  2.00566209 35464
1 39533U 14008A   18359.46419074  .00000009  00000-0  00000-0 0  9996
2 39533  53.9862 260.9809 0036119 191.5046 168.4841  2.00566231 34934
1 39533U 14008A   18359.96275953  .00000004  00000-0  00000+0 0  9991
2 39533  53.9859 260.9604 0036120 191.4918 168.4959  2.00566254 35488
1 39533U 14008A   18360.95989513 -.00000008  00000-0  00000+0 0  9991
2 39533  53.9853 260.9192 0036121 191.4610 168.5236  2.00566308 35506
1 39533U 14008A   18361.45846234 -.00000014  00000-0  00000-0 0  9997
2 39533  53.9851 260.8987 0036122 191.4472 168.5354  2.00566338 34976
1 39533U 14008A   18362.45559661 -.00000023  00000-0  00000+0 0  9992
2 39533  53.9845 260.8576 0036118 191.4340 168.5446  2.00566379 35532
1 39533U 14008A   18362.45559661 -.00000023  00000-0  00000-0 0  9993
2 39533  53.9845 260.8576 0036118 191.4340 168.5446  2.00566379 34991
1 39533U 14008A   18363.45273202 -.00000027  00000-0  00000-0 0  9992
2 39533  53.9840 260.8165 0036121 191.3770 168.5989  2.00566459 35015
1 39533U 14008A   18363.95130051 -.00000028  00000-0  00000+0 0  9991
2 39533  53.9837 260.7959 0036117 191.3748 168.6002  2.00566479 35560
1 39533U 14008A   18363.95130051 -.00000028  00000-0  00000-0 0  9992
2 39533  53.9837 260.7959 0036117 191.3748 168.6002  2.00566479 35021
1 39533U 14008A   18364.44986969 -.00000027  00000-0  00000-0 0  9993
2 39533  53.9835 260.7754 0036119 191.3491 168.6256  2.00566518 35035
1 39533U 14008A   18364.94843952 -.00000024  00000-0  00000+0 0  9998
2 39533  53.9832 260.7548 0036125 191.3278 168.6472  2.00566560 35580
1 39533U 14008A   18364.94843952 -.00000024  00000-0  00000-0 0  9999
2 39533  53.9832 260.7548 0036125 191.3278 168.6472  2.00566560 35041
1 39533U 14008A   18365.44701013 -.00000021  00000-0  00000+0 0  9992
2 39533  53.9830 260.7343 0036126 191.3096 168.6663  2.00566592 35598
1 39533U 14008A   18365.44701013 -.00000021  00000-0  00000-0 0  9993
2 39533  53.9830 260.7343 0036126 191.3096 168.6663  2.00566592 35059
